YAOGAN-43 01D           
1 60461U 24148D   26068.43560480  .00010676  00000+0  37766-3 0  9999
2 60461  35.0010  61.7102 0002556 326.2473  33.8080 15.28369377 87008
STARLINK-33976          
1 63858U 25093Y   26068.43701370  .00034057  00000+0  12395-2 0  9996
2 63858  43.0078  79.2845 0004186 284.0658  75.9728 15.27624713 47772
